ONEWEB-0144             
1 47290U 20100AJ  25279.57322061  .00000254  00000+0  67034-3 0  9999
2 47290  87.8940  41.0177 0002009 103.3500 256.7853 13.12440821231304
ONEWEB-0145             
1 47291U 20100AK  25279.77272739 -.00000022  00000+0 -96091-4 0  9999
2 47291  87.8949  41.0113 0001746 101.4368 258.6957 13.12443172231524
ONEWEB-0146             
1 47292U 20100AL  25279.76948630 -.00000078  00000+0 -25298-3 0  9990
2 47292  87.8948  40.9985 0001360  95.9241 264.2042 13.12443830231437
ONEWEB-0147             
1 47293U 20100AM  25279.81165652 -.00000067  00000+0 -22264-3 0  9990
2 47293  87.8950  40.9683 0001729 109.6807 250.4509 13.12441888231331
ONEWEB-0115             
1 48042U 21025A   25279.96138645 -.00000102  00000+0 -31468-3 0  9994
2 48042  87.9058  10.5279 0001771  99.8236 260.3093 13.13469553220359
ONEWEB-0152             
1 48043U 21025B   25279.67021373 -.00000303  00000+0 -86405-3 0  9996
2 48043  87.9051  10.5994 0001687 102.5560 257.5758 13.13468458220275
ONEWEB-0153             
1 48044U 21025C   25279.95292330  .00000144  00000+0  35960-3 0  9992
2 48044  87.9055  10.5438 0001853 100.1615 259.9723 13.13468593220305
ONEWEB-0154             
1 48045U 21025D   25279.94954095  .00000174  00000+0  44247-3 0  9996
2 48045  87.9055  10.5409 0001809 103.3721 256.7610 13.13470002220261
